{
  "norad_id": 68220,
  "name": "STARLINK-37030",
  "history": [
    {
      "epoch": "2026-03-28T22:00:01.999584Z",
      "apogee_km": 329.1958123248878,
      "perigee_km": 327.0987572290387,
      "latitude_deg": 74.56303376939304,
      "longitude_deg": 139.38874103681272,
      "height_km": 339.9667756850445,
      "semi_major_axis_km": 6706.284284776963,
      "eccentricity": 0.00015635,
      "inclination_deg": 97.2832,
      "raan_deg": 323.1288,
      "arg_perigee_deg": 99.7229,
      "mean_anomaly_deg": 336.5593,
      "mean_motion_rev_day": 15.80810539
    },
    {
      "epoch": "2026-03-29T04:00:01.999584Z",
      "apogee_km": 329.0689024337971,
      "perigee_km": 327.06777076135677,
      "latitude_deg": 57.39769104661388,
      "longitude_deg": 65.34547820545288,
      "height_km": 336.985531439793,
      "semi_major_axis_km": 6706.205336597576,
      "eccentricity": 0.0001492,
      "inclination_deg": 97.2844,
      "raan_deg": 323.3934,
      "arg_perigee_deg": 95.8613,
      "mean_anomaly_deg": 322.1744,
      "mean_motion_rev_day": 15.80838454
    }
  ]
}